OBJECT_NAME,OBJECT_ID,EPOCH,MEAN_MOTION,ECCENTRICITY,INCLINATION,RA_OF_ASC_NODE,ARG_OF_PERICENTER,MEAN_ANOMALY,EPHEMERIS_TYPE,CLASSIFICATION_TYPE,NORAD_CAT_ID,ELEMENT_SET_NO,REV_AT_EPOCH,BSTAR,MEAN_MOTION_DOT,MEAN_MOTION_DDOT
STARLINK-5341,2023-010U,2026-07-12T01:04:30.132480,14.98332606,.00028781,69.9997,51.0588,272.6167,87.4662,0,U,55287,999,19238,.18519893E-4,.128E-5,0
STARLINK-5311,2023-010V,2026-07-12T15:00:13.855104,14.98336052,.00028647,69.9991,69.4346,267.3069,92.7762,0,U,55288,999,19198,.36360614E-4,.341E-5,0
STARLINK-5320,2023-010W,2026-07-11T20:10:25.578048,14.98341106,.00018395,69.9997,71.5145,272.7045,87.3903,0,U,55289,999,19186,-.36842141E-4,-.533E-5,0
STARLINK-5266,2023-010X,2026-07-11T19:58:24.331584,14.98332923,.00029814,69.9993,71.4841,266.1822,93.8996,0,U,55290,999,19186,.10831153E-3,.12E-4,0
STARLINK-5327,2023-010Y,2026-07-12T02:46:59.102112,14.98333574,.00028929,69.9997,70.8689,279.6582,80.4250,0,U,55291,999,19190,.3133379E-5,-.56E-6,0
STARLINK-5325,2023-010Z,2026-07-11T19:40:22.137024,14.98332736,.00026258,69.9991,71.4390,267.9739,92.1119,0,U,55292,999,19186,.11615269E-4,.46E-6,0
STARLINK-5287,2023-010AA,2026-07-12T14:59:59.771904,14.98329768,.00029157,69.9991,69.4344,260.9081,99.1748,0,U,55293,999,19198,-.2549326E-4,-.397E-5,0
STARLINK-5286,2023-010AB,2026-07-11T19:52:43.165632,14.98330988,.00029486,69.9995,91.3351,263.2543,96.8281,0,U,55294,999,19137,.10826455E-4,.36E-6,0
STARLINK-5293,2023-010AC,2026-07-12T03:17:21.169248,14.98332369,.00029852,70.0000,90.8134,267.9843,92.0974,0,U,55295,999,19142,.28096001E-4,.242E-5,0
STARLINK-5285,2023-010AD,2026-07-12T14:35:55.402368,14.98331975,.00045161,69.9963,69.3740,273.5099,86.5543,0,U,55296,999,19286,.8367077E-5,.7E-7,0
STARLINK-5284,2023-010AE,2026-07-11T19:34:23.027520,14.98315727,.00030279,69.9977,71.4205,277.9081,82.1734,0,U,55297,999,19186,.14638221E-3,.1653E-4,0
STARLINK-5270,2023-010AG,2026-07-11T20:52:27.681312,14.98332358,.00029548,69.9996,71.2151,278.4918,81.5906,0,U,55299,999,19275,-.62525501E-4,-.839E-5,0
STARLINK-5308,2023-010AH,2026-07-12T14:23:55.503744,14.98332953,.00029137,69.9988,69.3519,274.7714,85.3112,0,U,55300,999,19198,-.49386847E-4,-.682E-5,0
STARLINK-5321,2023-010AK,2026-07-11T21:04:28.837920,14.98331455,.0003316,69.9993,71.2407,255.9453,104.1338,0,U,55302,999,19187,-.77566709E-4,-.1018E-4,0
STARLINK-5322,2023-010AL,2026-07-11T21:10:48.678240,14.98297830,.0002713,69.9988,91.1234,259.3808,100.7046,0,U,55303,999,19138,.34717E-3,.4048E-4,0
STARLINK-5318,2023-010AM,2026-07-11T20:40:26.417568,14.98336220,.00032148,69.9989,71.1828,265.8146,94.2645,0,U,55304,999,19187,.66191904E-4,.697E-5,0
STARLINK-5316,2023-010AN,2026-07-12T01:22:52.592160,14.98332311,.00027615,69.9993,71.0690,266.6650,93.4193,0,U,55305,999,19190,.13234584E-4,.65E-6,0
STARLINK-5295,2023-010AP,2026-07-12T00:40:28.711776,14.98319863,.00031498,69.9996,51.0902,271.1269,88.9529,0,U,55306,999,19239,.34821311E-4,.322E-5,0
STARLINK-5288,2023-010AQ,2026-07-12T00:46:28.735392,14.98342639,.00026879,69.9999,51.1057,273.6169,86.4683,0,U,55307,999,19239,.49625321E-4,.499E-5,0
STARLINK-5315,2023-010AS,2026-07-12T01:10:29.623008,14.98341692,.00027368,69.9995,50.7614,275.3838,84.7009,0,U,55309,999,19240,.12732125E-4,.59E-6,0
STARLINK-5309,2023-010AT,2026-07-11T19:40:02.761824,14.98335027,.00027935,69.9995,51.5634,269.9134,90.1705,0,U,55310,999,19236,-.18443518E-4,-.313E-5,0
STARLINK-5312,2023-010AU,2026-07-12T00:34:27.603840,14.98323868,.00029555,69.9996,51.0746,269.7537,90.3283,0,U,55311,999,19326,.33958389E-4,.312E-5,0
STARLINK-5296,2023-010AV,2026-07-12T14:17:35.067264,14.98337871,.00029444,69.9996,49.3442,270.7415,89.3406,0,U,55312,999,19333,-.51703564E-4,-.71E-5,0
STARLINK-5313,2023-010AW,2026-07-12T14:41:38.331744,14.98332909,.0002657,69.9998,49.5150,264.7665,95.3191,0,U,55313,999,19335,-.68262695E-4,-.907E-5,0
STARLINK-5305,2023-010AX,2026-07-12T00:22:24.712320,14.98383086,.00034849,69.9997,51.0447,278.1391,81.9373,0,U,55314,999,19326,-.86319772E-3,-.10392E-3,0
STARLINK-4623,2023-010AY,2026-07-12T15:05:59.927712,14.98331731,.00026925,69.9994,69.4481,268.9502,91.1349,0,U,55315,999,19197,.17128677E-4,.111E-5,0
STARLINK-5257,2023-010AZ,2026-07-12T14:05:34.849824,14.98334662,.00027852,69.9991,49.4424,269.5245,90.5595,0,U,55316,999,19335,.36271767E-4,.34E-5,0
STARLINK-5265,2023-010BA,2026-07-12T00:10:25.280256,14.98339358,.00027116,69.9995,51.0431,268.8633,91.2215,0,U,55317,999,19326,.6230876E-5,-.19E-6,0
STARLINK-5180,2023-010BB,2026-07-12T00:04:24.375360,14.98338432,.00028718,69.9981,50.9985,271.6392,88.4438,0,U,55318,999,19326,-.10490962E-3,-.1345E-4,0
STARLINK-5196,2023-010BC,2026-07-12T14:23:36.270240,14.98339185,.00030055,69.9991,49.4706,266.8529,93.2286,0,U,55319,999,19335,-.24525368E-4,-.386E-5,0
