STARLINK-5341           
1 55287U 23010U   26193.04479320  .00000128  00000+0  18520-4 0  9993
2 55287  69.9997  51.0588 0002878 272.6167  87.4662 14.98332606192389
STARLINK-5311           
1 55288U 23010V   26193.62516036  .00000341  00000+0  36361-4 0  9994
2 55288  69.9991  69.4346 0002864 267.3069  92.7762 14.98336052191980
STARLINK-5320           
1 55289U 23010W   26192.84057382 -.00000533  00000+0 -36842-4 0  9991
2 55289  69.9997  71.5145 0001839 272.7045  87.3903 14.98341106191863
STARLINK-5266           
1 55290U 23010X   26192.83222606  .00001200  00000+0  10831-3 0  9994
2 55290  69.9993  71.4841 0002981 266.1822  93.8996 14.98332923191863
STARLINK-5327           
1 55291U 23010Y   26193.11596183 -.00000056  00000+0  31334-5 0  9993
2 55291  69.9997  70.8689 0002892 279.6582  80.4250 14.98333574191907
STARLINK-5325           
1 55292U 23010Z   26192.81970066  .00000046  00000+0  11615-4 0  9993
2 55292  69.9991  71.4390 0002625 267.9739  92.1119 14.98332736191864
STARLINK-5287           
1 55293U 23010AA  26193.62499736 -.00000397  00000+0 -25493-4 0  9994
2 55293  69.9991  69.4344 0002915 260.9081  99.1748 14.98329768191985
STARLINK-5286           
1 55294U 23010AB  26192.82827738  .00000036  00000+0  10826-4 0  9995
2 55294  69.9995  91.3351 0002948 263.2543  96.8281 14.98330988191372
STARLINK-5293           
1 55295U 23010AC  26193.13705057  .00000242  00000+0  28096-4 0  9997
2 55295  70.0000  90.8134 0002985 267.9843  92.0974 14.98332369191429
STARLINK-5285           
1 55296U 23010AD  26193.60828012  .00000007  00000+0  83671-5 0  9997
2 55296  69.9963  69.3740 0004516 273.5099  86.5543 14.98331975192868
STARLINK-5284           
1 55297U 23010AE  26192.81554430  .00001653  00000+0  14638-3 0  9993
2 55297  69.9977  71.4205 0003027 277.9081  82.1734 14.98315727191869
STARLINK-5270           
1 55299U 23010AG  26192.86976483 -.00000839  00000+0 -62526-4 0  9993
2 55299  69.9996  71.2151 0002954 278.4918  81.5906 14.98332358192755
STARLINK-5308           
1 55300U 23010AH  26193.59994796 -.00000682  00000+0 -49387-4 0  9990
2 55300  69.9988  69.3519 0002913 274.7714  85.3112 14.98332953191989
STARLINK-5321           
1 55302U 23010AK  26192.87811155 -.00001018  00000+0 -77567-4 0  9994
2 55302  69.9993  71.2407 0003316 255.9453 104.1338 14.98331455191878
STARLINK-5322           
1 55303U 23010AL  26192.88250785  .00004048  00000+0  34717-3 0  9995
2 55303  69.9988  91.1234 0002713 259.3808 100.7046 14.98297830191386
STARLINK-5318           
1 55304U 23010AM  26192.86141687  .00000697  00000+0  66192-4 0  9993
2 55304  69.9989  71.1828 0003214 265.8146  94.2645 14.98336220191872
STARLINK-5316           
1 55305U 23010AN  26193.05755315  .00000065  00000+0  13235-4 0  9994
2 55305  69.9993  71.0690 0002761 266.6650  93.4193 14.98332311191909
STARLINK-5295           
1 55306U 23010AP  26193.02811009  .00000322  00000+0  34821-4 0  9995
2 55306  69.9996  51.0902 0003149 271.1269  88.9529 14.98319863192398
STARLINK-5288           
1 55307U 23010AQ  26193.03227703  .00000499  00000+0  49625-4 0  9992
2 55307  69.9999  51.1057 0002687 273.6169  86.4683 14.98342639192397
STARLINK-5315           
1 55309U 23010AS  26193.04895397  .00000059  00000+0  12732-4 0  9996
2 55309  69.9995  50.7614 0002736 275.3838  84.7009 14.98341692192409
STARLINK-5309           
1 55310U 23010AT  26192.81947641 -.00000313  00000+0 -18444-4 0  9993
2 55310  69.9995  51.5634 0002793 269.9134  90.1705 14.98335027192367
STARLINK-5312           
1 55311U 23010AU  26193.02393060  .00000312  00000+0  33958-4 0  9992
2 55311  69.9996  51.0746 0002955 269.7537  90.3283 14.98323868193266
STARLINK-5296           
1 55312U 23010AV  26193.59554476 -.00000710  00000+0 -51704-4 0  9998
2 55312  69.9996  49.3442 0002944 270.7415  89.3406 14.98337871193337
STARLINK-5313           
1 55313U 23010AW  26193.61224921 -.00000907  00000+0 -68263-4 0  9997
2 55313  69.9998  49.5150 0002657 264.7665  95.3191 14.98332909193356
STARLINK-5305           
1 55314U 23010AX  26193.01556380 -.00010392  00000+0 -86320-3 0  9991
2 55314  69.9997  51.0447 0003484 278.1391  81.9373 14.98383086193262
STARLINK-4623           
1 55315U 23010AY  26193.62916583  .00000111  00000+0  17129-4 0  9992
2 55315  69.9994  69.4481 0002692 268.9502  91.1349 14.98331731191974
STARLINK-5257           
1 55316U 23010AZ  26193.58720891  .00000340  00000+0  36272-4 0  9997
2 55316  69.9991  49.4424 0002785 269.5245  90.5595 14.98334662193357
STARLINK-5265           
1 55317U 23010BA  26193.00723704 -.00000019  00000+0  62309-5 0  9996
2 55317  69.9995  51.0431 0002711 268.8633  91.2215 14.98339358193265
STARLINK-5180           
1 55318U 23010BB  26193.00305990 -.00001345  00000+0 -10491-3 0  9997
2 55318  69.9981  50.9985 0002871 271.6392  88.4438 14.98338432193261
STARLINK-5196           
1 55319U 23010BC  26193.59972535 -.00000386  00000+0 -24525-4 0  9995
2 55319  69.9991  49.4706 0003005 266.8529  93.2286 14.98339185193356
